ATLAS CENTAUR R/B       
1 06155U 72065B   26064.16647695  .00001743  00000+0  24039-3 0  9994
2 06155  35.0027 332.2612 0034057 330.9082  28.9721 14.77672398840598
SL-8 R/B                
1 08459U 75112B   26064.19040280  .00000291  00000+0  10430-3 0  9996
2 08459  74.0619  27.1880 0014530 122.3559 237.9004 14.38200329631222
SL-3 R/B                
1 10114U 77057B   26064.25127665  .00016307  00000+0  34330-3 0  9997
2 10114  97.5764 235.9774 0006300 303.5863  56.4784 15.45345085667644
SEASAT 1                
1 10967U 78064A   26064.13826077  .00000275  00000+0  11535-3 0  9991
2 10967 108.0119 115.9490 0002205 287.3254  72.7650 14.46155861505855
SL-14 R/B               
1 11267U 79011B   26064.15386268  .00000720  00000+0  68501-4 0  9994
2 11267  82.5213 100.8761 0017565  74.4309 285.8848 14.91901860528102
SL-8 R/B                
1 11574U 79089B   26064.23714203  .00000368  00000+0  11914-3 0  9996
2 11574  74.0672  99.2870 0017136 272.3978  87.5216 14.42347335435464
SL-14 R/B               
1 11672U 80005B   26064.16390114  .00000775  00000+0  75871-4 0  9993
2 11672  82.5154 311.5291 0015784 172.9693 187.1751 14.90924299475812
SL-8 R/B                
1 12139U 81003B   26064.09962291  .00020990  00000+0  54116-3 0  9993
2 12139  82.9385 294.2686 0262617 194.5791 164.7768 15.10758620313988
SL-3 R/B                
1 12465U 81046B   26064.24184982  .00015076  00000+0  35197-3 0  9999
2 12465  81.2304 295.0856 0019965  37.3903 322.8724 15.41858348437748
SL-3 R/B                
1 12904U 81103B   26064.23404540  .00008083  00000+0  35941-3 0  9992
2 12904  81.1579 218.6584 0012454 302.7510  57.2520 15.21310641972550
SL-3 R/B                
1 13068U 82013B   26064.24398594  .00006250  00000+0  27112-3 0  9992
2 13068  81.1767 165.9798 0022376 192.2934 167.7755 15.21961057403670
SL-3 R/B                
1 13154U 82039B   26064.28349223  .00003822  00000+0  23117-3 0  9998
2 13154  81.1582 221.0417 0029841 338.8451  21.1537 15.10049873380978
